1 45044U 20006A   22365.53049382  .00003592  00000-0  25994-3 0  9998
2 45044  53.0564  92.7248 0001924  59.3245 300.7933 15.06401721161277
1 45044U 20006A   22365.72954003  .00004270  00000-0  30546-3 0  9997
2 45044  53.0542  91.8332 0001880  65.0957 295.0227 15.06391337161309
1 45044U 20006A   23001.92380947 -.00003952  00000-0 -24666-3 0  9991
2 45044  53.0547  86.4734 0001834  48.5028 311.6118 15.06382348161489
1 45044U 20006A   23002.58727047 -.00001017  00000-0 -49372-4 0  9992
2 45044  53.0552  83.4946 0001866  47.2503 312.8643 15.06390092161588
1 45044U 20006A   23002.91900163  .00000023  00000-0  20432-4 0  9991
2 45044  53.0552  82.0053 0001905  46.4639 313.6508 15.06394716161639
1 45044U 20006A   23003.58247125  .00004231  00000-0  30283-3 0  9996
2 45044  53.0552  79.0269 0001910  45.8987 314.2159 15.06388961161734
1 45044U 20006A   23004.44498323  .00002918  00000-0  21471-3 0  9999
2 45044  53.0551  75.1549 0001887  45.3644 314.7498 15.06395459161864
1 45044U 20006A   23004.51132718  .00002803  00000-0  20699-3 0  9994
2 45044  53.0550  74.8570 0001934  45.4440 314.6707 15.06401715161877
1 45044U 20006A   23005.57285839  .00001971  00000-0  15114-3 0  9995
2 45044  53.0548  70.0918 0001933  44.6457 315.4687 15.06419162162036
1 45044U 20006A   23006.56807914 -.00004841  00000-0 -30646-3 0  9997
2 45044  53.0555  65.6235 0001819  38.7622 321.3498 15.06379431162183
1 45044U 20006A   23007.16519964 -.00001388  00000-0 -74316-4 0  9995
2 45044  53.0595  62.9457 0001990   2.5038 357.5960 15.06385143162275
1 45044U 20006A   23007.82867071 -.00002612  00000-0 -15652-3 0  9991
2 45044  53.0549  59.9644 0002559  43.0409 317.0780 15.06387698162371
1 45044U 20006A   23008.55849011  .00005760  00000-0  40537-3 0  9991
2 45044  53.0537  56.6886 0002049  35.3000 324.8125 15.06392090162488
1 45044U 20006A   23008.82387379  .00006644  00000-0  46447-3 0  9993
2 45044  53.0541  55.4974 0002045  35.4970 324.6154 15.06401303162524
1 45044U 20006A   23009.42099091  .00003838  00000-0  27634-3 0  9990
2 45044  53.0553  52.8175 0002040  42.9695 317.1453 15.06408509162617
1 45044U 20006A   23010.48255067  .00009535  00000-0  65821-3 0  9995
2 45044  53.0537  48.0509 0002155  41.0448 319.0702 15.06394733162778
1 45044U 20006A   23010.81428777  .00005763  00000-0  40556-3 0  9999
2 45044  53.0534  46.5614 0002077  45.2592 314.8566 15.06389857162822
1 45044U 20006A   23011.34506273  .00008311  00000-0  57614-3 0  9991
2 45044  53.0535  44.1783 0002041  47.4112 312.7048 15.06401572162907
1 45044U 20006A   23011.87583394  .00010577  00000-0  72762-3 0  9996
2 45044  53.0536  41.7959 0002143  51.3021 308.8159 15.06413869162981
1 45044U 20006A   23012.34025779  .00007813  00000-0  54259-3 0  9997
2 45044  53.0555  39.7111 0001634  53.9418 306.1722 15.06415282163058
1 45044U 20006A   23013.33547150  .00018552  00000-0  12610-2 0  9995
2 45044  53.0540  35.2429 0001779  69.0464 291.0715 15.06402236163200
1 45044U 20006A   23015.06049298  .00000394  00000-0  45373-4 0  9996
2 45044  53.0566  27.5009 0001642  87.6732 272.4445 15.06396068163465
1 45044U 20006A   23015.72395755  .00005375  00000-0  37939-3 0  9993
2 45044  53.0562  24.5228 0001713  88.7641 271.3544 15.06409755163568
1 45044U 20006A   23016.38742173  .00011054  00000-0  75942-3 0  9993
2 45044  53.0546  21.5416 0001867  83.4036 276.7166 15.06420119163663
1 45044U 20006A   23017.24994458 -.00001004  00000-0 -48507-4 0  9998
2 45044  53.0552  17.6730 0002909  77.9495 282.1820 15.06388591163799
1 45044U 20006A   23017.71437713  .00006726  00000-0  47010-3 0  9997
2 45044  53.0549  15.5855 0001876  83.5483 276.5720 15.06391125163863
1 45044U 20006A   23018.37784140  .00028310  00000-0  19103-2 0  9993
2 45044  53.0549  12.6063 0001793  82.6612 277.4580 15.06429508163966
1 45044U 20006A   23018.70957225  .00012673  00000-0  86759-3 0  9993
2 45044  53.0536  11.1171 0001800  83.6824 276.4370 15.06423646164011
1 45044U 20006A   23019.37303166  .00015031  00000-0  10249-2 0  9997
2 45044  53.0544   8.1391 0001925  92.3788 267.7422 15.06433601164118
1 45044U 20006A   23020.43459147  .00009432  00000-0  65122-3 0  9996
2 45044  53.0553   3.3730 0001784  96.4682 263.6510 15.06402192164274
1 45044U 20006A   23025.27791990  .00008932  00000-0  61750-3 0  9995
2 45044  53.0550 341.6306 0001270  98.5745 261.5388 15.06414420165000
1 45044U 20006A   23025.74235004  .00003305  00000-0  24062-3 0  9990
2 45044  53.0549 339.5465 0001503  77.3990 282.7167 15.06407380165070
1 45044U 20006A   23026.14042906  .00015220  00000-0  10381-2 0  9999
2 45044  53.0552 337.7615 0001273  84.7740 275.3394 15.06413918165131
1 45044U 20006A   23027.26832293  .00009203  00000-0  63574-3 0  9996
2 45044  53.0555 332.6963 0001252  98.4556 261.6575 15.06410979165300
1 45044U 20006A   23028.26353096  .00010850  00000-0  74615-3 0  9994
2 45044  53.0551 328.2293 0001151  90.8855 269.2266 15.06400771165455
1 45044U 20006A   23029.19238345  .00007892  00000-0  54796-3 0  9996
2 45044  53.0548 324.0594 0001156  86.1504 273.9617 15.06410862165592
1 45044U 20006A   23030.12123969  .00004056  00000-0  29096-3 0  9990
2 45044  53.0547 319.8900 0001195  95.0792 265.0333 15.06405737165733
1 45044U 20006A   23031.05009704  .00001801  00000-0  13975-3 0  9997
2 45044  53.0547 315.7203 0001198  93.1738 266.9388 15.06400534165871
